NORAD_CAT_ID,OBJECT_NAME,OBJECT_TYPE,EPOCH,MEAN_MOTION,ECCENTRICITY,INCLINATION,RA_OF_ASC_NODE,ARG_OF_PERICENTER,MEAN_ANOMALY,BSTAR,MEAN_MOTION_DOT,MEAN_MOTION_DDOT,TLE_LINE0,TLE_LINE1,TLE_LINE2,SEMIMAJOR_AXIS,PERIOD,APOGEE,PERIGEE,DECAYED
51729.0,STARLINK-3523,PAYLOAD,2024-05-01 09:07:57,15.08840143,0.0001324,53.2158,119.6788,86.3075,273.8068,0.00038104,5.782e-05,0.0,0 STARLINK-3523,1 51729U 22016R   24122.38052427  .00005782  00000-0  38104-3 0  9998,2 51729  53.2158 119.6788 0001324  86.3075 273.8068 15.08840143121315,6917.88,95.438,540.661,538.829,0.0
51729.0,STARLINK-3523,PAYLOAD,2024-05-01 17:04:52,15.0884494,0.0001334,53.2156,118.1924,86.1948,273.9196,0.0004074,6.203e-05,0.0,0 STARLINK-3523,1 51729U 22016R   24122.71172329  .00006203  00000-0  40740-3 0  9997,2 51729  53.2156 118.1924 0001334  86.1948 273.9196 15.08844940121364,6917.865,95.437,540.653,538.807,0.0
51729.0,STARLINK-3523,PAYLOAD,2024-05-02 05:47:57,15.08854009,0.0001356,53.2155,115.8132,86.9773,273.1374,0.00046972,7.198e-05,0.0,0 STARLINK-3523,1 51729U 22016R   24123.24163952  .00007198  00000-0  46972-3 0  9995,2 51729  53.2155 115.8132 0001356  86.9773 273.1374 15.08854009122577,6917.838,95.437,540.641,538.765,0.0
51729.0,STARLINK-3523,PAYLOAD,2024-05-03 05:38:44,15.08847762,0.000162,53.2173,111.3518,99.6061,260.5115,0.00010067,1.315e-05,0.0,0 STARLINK-3523,1 51729U 22016R   24124.23523540  .00001315  00000-0  10067-3 0  9999,2 51729  53.2173 111.3518 0001620  99.6061 260.5115 15.08847762122729,6917.857,95.437,540.842,538.601,0.0
51729.0,STARLINK-3523,PAYLOAD,2024-05-03 08:49:30,15.08847792,0.0001603,53.2175,110.7569,99.6086,260.5087,9.3186e-05,1.196e-05,0.0,0 STARLINK-3523,1 51729U 22016R   24124.36771513  .00001196  00000-0  93186-4 0  9999,2 51729  53.2175 110.7569 0001603  99.6086 260.5087 15.08847792121616,6917.857,95.437,540.831,538.613,0.0
51729.0,STARLINK-3523,PAYLOAD,2024-05-04 05:29:32,15.08837489,0.0001303,53.217,106.891,93.4407,266.6734,-0.00010927,-2.026e-05,0.0,0 STARLINK-3523,1 51729U 22016R   24125.22884428 -.00002026  00000-0 -10927-3 0  9991,2 51729  53.2170 106.8910 0001303  93.4407 266.6734 15.08837489122870,6917.888,95.438,540.654,538.852,0.0
51729.0,STARLINK-3523,PAYLOAD,2024-05-05 05:20:18,15.08836462,0.000118,53.2164,102.433,86.9614,273.1513,9.5964e-05,1.24e-05,0.0,0 STARLINK-3523,1 51729U 22016R   24126.22244181  .00001240  00000-0  95964-4 0  9998,2 51729  53.2164 102.4330 0001180  86.9614 273.1513 15.08836462121890,6917.891,95.438,540.573,538.94,0.0
51729.0,STARLINK-3523,PAYLOAD,2024-05-05 22:49:33,15.08838174,0.0001231,53.2173,99.1616,83.5308,276.5824,0.00016314,2.309e-05,0.0,0 STARLINK-3523,1 51729U 22016R   24126.95107961  .00002309  00000-0  16314-3 0  9990,2 51729  53.2173  99.1616 0001231  83.5308 276.5824 15.08838174122007,6917.886,95.438,540.603,538.899,0.0
51729.0,STARLINK-3523,PAYLOAD,2024-05-06 06:46:28,15.08841817,0.0001269,53.2177,97.6752,85.5964,274.5174,0.00019267,2.78e-05,0.0,0 STARLINK-3523,1 51729U 22016R   24127.28227884  .00002780  00000-0  19267-3 0  9997,2 51729  53.2177  97.6752 0001269  85.5964 274.5174 15.08841817123180,6917.875,95.437,540.618,538.862,0.0
51729.0,STARLINK-3523,PAYLOAD,2024-05-06 14:43:24,15.08850855,0.0001255,53.2177,96.1886,86.3554,273.7581,0.00024648,3.638e-05,0.0,0 STARLINK-3523,1 51729U 22016R   24127.61347245  .00003638  00000-0  24648-3 0  9990,2 51729  53.2177  96.1886 0001255  86.3554 273.7581 15.08850855123232,6917.847,95.437,540.58,538.844,0.0
51729.0,STARLINK-3523,PAYLOAD,2024-05-07 05:01:52,15.08844325,0.0001358,53.2182,93.5128,89.9648,270.15,9.1196e-05,1.164e-05,0.0,0 STARLINK-3523,1 51729U 22016R   24128.20964101  .00001164  00000-0  91196-4 0  9997,2 51729  53.2182  93.5128 0001358  89.9648 270.1500 15.08844325123322,6917.867,95.437,540.672,538.793,0.0
51729.0,STARLINK-3523,PAYLOAD,2024-05-07 06:37:16,15.08845141,0.0001372,53.2182,93.2154,90.2532,269.8617,9.9405e-05,1.295e-05,0.0,0 STARLINK-3523,1 51729U 22016R   24128.27588050  .00001295  00000-0  99405-4 0  9995,2 51729  53.2182  93.2154 0001372  90.2532 269.8617 15.08845141122208,6917.865,95.437,540.679,538.781,0.0
51729.0,STARLINK-3523,PAYLOAD,2024-05-08 04:52:40,15.08841877,0.0001373,53.2183,89.0524,93.1272,266.9877,3.5213e-05,2.73e-06,0.0,0 STARLINK-3523,1 51729U 22016R   24129.20324325  .00000273  00000-0  35213-4 0  9994,2 51729  53.2183  89.0524 0001373  93.1272 266.9877 15.08841877123475,6917.875,95.437,540.689,538.79,0.0
51729.0,STARLINK-3523,PAYLOAD,2024-05-08 06:28:03,15.08840117,0.0001429,53.2176,88.7547,92.8254,267.2902,1.8711e-06,-2.58e-06,0.0,0 STARLINK-3523,1 51729U 22016R   24129.26948021 -.00000258  00000-0  18711-5 0  9994,2 51729  53.2176  88.7547 0001429  92.8254 267.2902 15.08840117122351,6917.88,95.438,540.734,538.756,0.0
51729.0,STARLINK-3523,PAYLOAD,2024-05-08 14:24:58,15.08847655,0.0001368,53.217,87.267,82.6511,277.4637,0.00011026,1.468e-05,0.0,0 STARLINK-3523,1 51729U 22016R   24129.60067619  .00001468  00000-0  11026-3 0  9990,2 51729  53.2170  87.2670 0001368  82.6511 277.4637 15.08847655123534,6917.857,95.437,540.668,538.776,0.0
51729.0,STARLINK-3523,PAYLOAD,2024-05-09 03:08:04,15.08829489,0.0001246,53.2174,84.8886,87.4757,272.6378,-3.8191e-06,-3.49e-06,0.0,0 STARLINK-3523,1 51729U 22016R   24130.13060752 -.00000349  00000-0 -38191-5 0  9994,2 51729  53.2174  84.8886 0001246  87.4757 272.6378 15.08829489123613,6917.913,95.438,540.639,538.916,0.0
51729.0,STARLINK-3523,PAYLOAD,2024-05-09 14:15:45,15.08846419,0.0001371,53.2171,82.8049,88.8101,271.3048,0.00023113,3.393e-05,0.0,0 STARLINK-3523,1 51729U 22016R   24130.59428048  .00003393  00000-0  23113-3 0  9996,2 51729  53.2171  82.8049 0001371  88.8101 271.3048 15.08846419123685,6917.861,95.437,540.674,538.777,0.0
51729.0,STARLINK-3523,PAYLOAD,2024-05-10 02:58:51,15.08841082,0.0001448,53.2186,80.4238,93.6977,266.4181,0.00014638,2.043e-05,0.0,0 STARLINK-3523,1 51729U 22016R   24131.12420533  .00002043  00000-0  14638-3 0  9990,2 51729  53.2186  80.4238 0001448  93.6977 266.4181 15.08841082123768,6917.877,95.437,540.744,538.74,0.0
51729.0,STARLINK-3523,PAYLOAD,2024-05-10 14:06:32,15.08855178,0.0001507,53.2184,78.3449,87.222,272.8944,0.00029902,4.476e-05,0.0,0 STARLINK-3523,1 51729U 22016R   24131.58787770  .00004476  00000-0  29902-3 0  9991,2 51729  53.2184  78.3449 0001507  87.2220 272.8944 15.08855178122704,6917.834,95.437,540.742,538.656,0.0
51729.0,STARLINK-3523,PAYLOAD,2024-05-11 06:00:22,15.08879859,0.0001506,53.2174,75.3704,107.6283,252.4873,0.00072409,0.00011267,0.0,0 STARLINK-3523,1 51729U 22016R   24132.25026424  .00011267  00000-0  72409-3 0  9994,2 51729  53.2174  75.3704 0001506 107.6283 252.4873 15.08879859123932,6917.759,95.435,540.665,538.582,0.0
51729.0,STARLINK-3523,PAYLOAD,2024-05-11 20:18:54,15.08795008,9.03e-05,53.2203,72.6958,86.799,273.3106,-0.00067288,-0.00010967,0.0,0 STARLINK-3523,1 51729U 22016R   24132.84646701 -.00010967  00000-0 -67288-3 0  9992,2 51729  53.2203  72.6958 0000903  86.7990 273.3106 15.08795008124023,6918.018,95.44,540.508,539.258,0.0
51729.0,STARLINK-3523,PAYLOAD,2024-05-12 05:51:15,15.08777289,0.0001357,53.2183,70.9135,93.6943,266.4204,-0.00081288,-0.00013179,0.0,0 STARLINK-3523,1 51729U 22016R   24133.24392415 -.00013179  00000-0 -81288-3 0  9991,2 51729  53.2183  70.9135 0001357  93.6943 266.4204 15.08777289124086,6918.072,95.442,540.876,538.998,0.0
51729.0,STARLINK-3523,PAYLOAD,2024-05-13 02:31:18,15.0880966,0.0001448,53.2178,67.0478,97.0876,263.0281,0.00066721,0.00010338,0.0,0 STARLINK-3523,1 51729U 22016R   24134.10506974  .00010338  00000-0  66721-3 0  9991,2 51729  53.2178  67.0478 0001448  97.0876 263.0281 15.08809660124213,6917.973,95.439,540.84,538.836,0.0
51729.0,STARLINK-3523,PAYLOAD,2024-05-13 12:03:36,15.08831119,0.0001623,53.2185,65.2637,87.4285,272.6892,0.0012516,0.00019682,0.0,0 STARLINK-3523,1 51729U 22016R   24134.50250562  .00019682  00000-0  12516-2 0  9997,2 51729  53.2185  65.2637 0001623  87.4285 272.6892 15.08831119123149,6917.908,95.438,540.895,538.65,0.0
51729.0,STARLINK-3523,PAYLOAD,2024-05-13 20:00:31,15.08843829,0.0001109,53.2176,63.7755,94.9866,265.1252,0.0011522,0.00018099,0.0,0 STARLINK-3523,1 51729U 22016R   24134.83370315  .00018099  00000-0  11522-2 0  9999,2 51729  53.2176  63.7755 0001109  94.9866 265.1252 15.08843829123193,6917.869,95.437,540.501,538.966,0.0
51729.0,STARLINK-3523,PAYLOAD,2024-05-14 00:46:40,15.08860371,0.0001296,53.2177,62.884,96.2544,263.8596,0.0012381,0.00019482,0.0,0 STARLINK-3523,1 51729U 22016R   24135.03241536  .00019482  00000-0  12381-2 0  9995,2 51729  53.2177  62.8840 0001296  96.2544 263.8596 15.08860371124350,6917.818,95.436,540.58,538.787,0.0
51729.0,STARLINK-3523,PAYLOAD,2024-05-14 11:54:20,15.08893958,0.0001321,53.2181,60.8029,99.1631,260.951,0.0010385,0.00016303,0.0,0 STARLINK-3523,1 51729U 22016R   24135.49607449  .00016303  00000-0  10385-2 0  9995,2 51729  53.2181  60.8029 0001321  99.1631 260.9510 15.08893958124429,6917.715,95.434,540.494,538.667,0.0
51729.0,STARLINK-3523,PAYLOAD,2024-05-14 23:02:02,15.08875841,0.0001342,53.2172,58.7194,85.2096,274.905,0.00014725,2.059e-05,0.0,0 STARLINK-3523,1 51729U 22016R   24135.95974640  .00002059  00000-0  14725-3 0  9992,2 51729  53.2172  58.7194 0001342  85.2096 274.9050 15.08875841123369,6917.771,95.435,540.564,538.707,0.0
51729.0,STARLINK-3523,PAYLOAD,2024-05-15 03:48:10,15.08884243,0.0001712,53.2187,57.8288,94.1377,265.9811,5.3959e-05,5.72e-06,0.0,0 STARLINK-3523,1 51729U 22016R   24136.15845724  .00000572  00000-0  53959-4 0  9996,2 51729  53.2187  57.8288 0001712  94.1377 265.9811 15.08884243124521,6917.745,95.435,540.794,538.426,0.0
51729.0,STARLINK-3523,PAYLOAD,2024-05-15 22:52:47,15.08872718,0.0002235,53.2178,54.2578,146.586,213.5273,-1.4126e-06,-3.11e-06,0.0,0 STARLINK-3523,1 51729U 22016R   24136.95332208 -.00000311  00000-0 -14126-5 0  9999,2 51729  53.2178  54.2578 0002235 146.5860 213.5273 15.08872718123517,6917.78,95.435,541.192,538.099,0.0
